NORAD_CAT_ID,OBJECT_NAME,OBJECT_TYPE,EPOCH,MEAN_MOTION,ECCENTRICITY,INCLINATION,RA_OF_ASC_NODE,ARG_OF_PERICENTER,MEAN_ANOMALY,BSTAR,MEAN_MOTION_DOT,MEAN_MOTION_DDOT,TLE_LINE0,TLE_LINE1,TLE_LINE2,SEMIMAJOR_AXIS,PERIOD,APOGEE,PERIGEE,DECAYED
49174.0,STARLINK-3047,PAYLOAD,2023-08-12 01:54:10,14.99000434,0.0002574,69.9992,125.8445,234.7979,125.294,0.00069229,8.321e-05,0.0,0 STARLINK-3047,1 49174U 21082AW  23224.07929023  .00008321  00000-0  69229-3 0  9998,2 49174  69.9992 125.8445 0002574 234.7979 125.2940 14.99000434106755,6948.12,96.064,571.774,568.197,0.0
49174.0,STARLINK-3047,PAYLOAD,2023-08-13 03:31:37,14.9901895,0.0002522,69.9993,123.1496,234.5953,125.4971,0.00068777,8.27e-05,0.0,0 STARLINK-3047,1 49174U 21082AW  23225.14696533  .00008270  00000-0  68777-3 0  9994,2 49174  69.9993 123.1496 0002522 234.5953 125.4971 14.99018950106912,6948.063,96.063,571.68,568.176,0.0
49174.0,STARLINK-3047,PAYLOAD,2023-08-14 03:32:58,14.99033517,0.0002387,69.9995,120.623,235.6589,124.4345,0.00061037,7.331e-05,0.0,0 STARLINK-3047,1 49174U 21082AW  23226.14790032  .00007331  00000-0  61037-3 0  9993,2 49174  69.9995 120.6230 0002387 235.6589 124.4345 14.99033517107065,6948.018,96.062,571.542,568.225,0.0
49174.0,STARLINK-3047,PAYLOAD,2023-08-15 16:23:00,14.99055519,0.00024,69.9992,116.7489,231.8027,128.2917,0.00060406,7.258e-05,0.0,0 STARLINK-3047,1 49174U 21082AW  23227.68264821  .00007258  00000-0  60406-3 0  9992,2 49174  69.9992 116.7489 0002400 231.8027 128.2917 14.99055519107293,6947.95,96.06,571.483,568.148,0.0
49174.0,STARLINK-3047,PAYLOAD,2023-08-16 16:24:19,14.99070403,0.0002375,69.999,114.2219,230.4443,129.6507,0.00062353,7.498e-05,0.0,0 STARLINK-3047,1 49174U 21082AW  23228.68355850  .00007498  00000-0  62353-3 0  9995,2 49174  69.9990 114.2219 0002375 230.4443 129.6507 14.99070403107449,6947.904,96.06,571.419,568.119,0.0
49174.0,STARLINK-3047,PAYLOAD,2023-08-17 16:25:37,14.99086603,0.0002351,69.9983,111.6952,231.8285,128.2663,0.00065978,7.943e-05,0.0,0 STARLINK-3047,1 49174U 21082AW  23229.68445829  .00007943  00000-0  65978-3 0  9993,2 49174  69.9983 111.6952 0002351 231.8285 128.2663 14.99086603107592,6947.854,96.058,571.353,568.086,0.0
49174.0,STARLINK-3047,PAYLOAD,2023-08-19 02:03:24,14.99107047,0.0002314,69.9982,108.157,233.1104,126.9844,0.00059599,7.169e-05,0.0,0 STARLINK-3047,1 49174U 21082AW  23231.08570060  .00007169  00000-0  59599-3 0  9998,2 49174  69.9982 108.1570 0002314 233.1104 126.9844 14.99107047107808,6947.791,96.057,571.264,568.048,0.0
49174.0,STARLINK-3047,PAYLOAD,2023-08-20 02:04:40,14.99119315,0.000223,69.9981,105.6298,233.4679,126.6276,0.00051931,6.236e-05,0.0,0 STARLINK-3047,1 49174U 21082AW  23232.08657738  .00006236  00000-0  51931-3 0  9993,2 49174  69.9981 105.6298 0002230 233.4679 126.6276 14.99119315107956,6947.753,96.056,571.167,568.069,0.0
49174.0,STARLINK-3047,PAYLOAD,2023-08-21 19:42:50,14.99134882,0.000227,69.998,101.2505,227.5084,132.5884,0.00037272,4.45e-05,0.0,0 STARLINK-3047,1 49174U 21082AW  23233.82141271  .00004450  00000-0  37272-3 0  9994,2 49174  69.9980 101.2505 0002270 227.5084 132.5884 14.99134882108213,6947.705,96.055,571.147,567.993,0.0
49174.0,STARLINK-3047,PAYLOAD,2023-08-22 00:31:05,14.99127783,0.000234,69.9978,100.7448,228.8065,131.2893,0.00015155,1.753e-05,0.0,0 STARLINK-3047,1 49174U 21082AW  23234.02158862  .00001753  00000-0  15155-3 0  9990,2 49174  69.9978 100.7448 0002340 228.8065 131.2893 14.99127783108242,6947.727,96.056,571.218,567.966,0.0
49174.0,STARLINK-3047,PAYLOAD,2023-08-23 00:32:19,14.99135879,0.0002358,69.9976,98.2183,229.2454,130.8501,0.00018898,2.209e-05,0.0,0 STARLINK-3047,1 49174U 21082AW  23235.02245161  .00002209  00000-0  18898-3 0  9994,2 49174  69.9976  98.2183 0002358 229.2454 130.8501 14.99135879108395,6947.702,96.055,571.205,567.929,0.0
49174.0,STARLINK-3047,PAYLOAD,2023-08-24 13:22:13,14.99149288,0.0002079,69.9985,94.3425,232.9153,127.1817,0.00036859,4.401e-05,0.0,0 STARLINK-3047,1 49174U 21082AW  23236.55710100  .00004401  00000-0  36859-3 0  9996,2 49174  69.9985  94.3425 0002079 232.9153 127.1817 14.99149288108622,6947.66,96.054,570.97,568.081,0.0
49174.0,STARLINK-3047,PAYLOAD,2023-08-25 00:34:47,14.99153836,0.0002054,69.9985,93.1631,233.6918,126.4051,0.0003838,4.588e-05,0.0,0 STARLINK-3047,1 49174U 21082AW  23237.02416480  .00004588  00000-0  38380-3 0  9990,2 49174  69.9985  93.1631 0002054 233.6918 126.4051 14.99153836108691,6947.646,96.054,570.938,568.084,0.0
49174.0,STARLINK-3047,PAYLOAD,2023-08-25 02:10:52,14.99154629,0.0002053,69.9986,92.9947,232.7355,127.3617,0.00038022,4.544e-05,0.0,0 STARLINK-3047,1 49174U 21082AW  23237.09088776  .00004544  00000-0  38022-3 0  9995,2 49174  69.9986  92.9947 0002053 232.7355 127.3617 14.99154629108704,6947.644,96.054,570.935,568.083,0.0
49174.0,STARLINK-3047,PAYLOAD,2023-08-25 21:23:51,14.99162318,0.0002016,69.9985,90.9729,231.9676,128.1301,0.00041018,4.911e-05,0.0,0 STARLINK-3047,1 49174U 21082AW  23237.89156518  .00004911  00000-0  41018-3 0  9990,2 49174  69.9985  90.9729 0002016 231.9676 128.1301 14.99162318108821,6947.62,96.054,570.886,568.085,0.0
49174.0,STARLINK-3047,PAYLOAD,2023-08-26 00:36:00,14.99163976,0.000201,69.9987,90.636,232.7327,127.365,0.00040149,4.805e-05,0.0,0 STARLINK-3047,1 49174U 21082AW  23238.02501078  .00004805  00000-0  40149-3 0  9997,2 49174  69.9987  90.6360 0002010 232.7327 127.3650 14.99163976108848,6947.615,96.054,570.877,568.084,0.0
49174.0,STARLINK-3047,PAYLOAD,2023-08-26 21:25:03,14.99171952,0.0002007,69.9983,88.4459,231.6252,128.4727,0.00039923,4.778e-05,0.0,0 STARLINK-3047,1 49174U 21082AW  23238.89240561  .00004778  00000-0  39923-3 0  9996,2 49174  69.9983  88.4459 0002007 231.6252 128.4727 14.99171952108973,6947.59,96.053,570.85,568.061,0.0
49174.0,STARLINK-3047,PAYLOAD,2023-08-27 00:37:13,14.99172532,0.0002002,69.9983,88.1089,231.8228,128.2751,0.00038062,4.551e-05,0.0,0 STARLINK-3047,1 49174U 21082AW  23239.02585081  .00004551  00000-0  38062-3 0  9993,2 49174  69.9983  88.1089 0002002 231.8228 128.2751 14.99172532108991,6947.589,96.053,570.845,568.063,0.0
49174.0,STARLINK-3047,PAYLOAD,2023-08-27 21:26:15,14.99180594,0.0001978,69.9982,85.9189,232.7135,127.3844,0.00038739,4.635e-05,0.0,0 STARLINK-3047,1 49174U 21082AW  23239.89324048  .00004635  00000-0  38739-3 0  9996,2 49174  69.9982  85.9189 0001978 232.7135 127.3844 14.99180594109120,6947.564,96.052,570.803,568.055,0.0
49174.0,STARLINK-3047,PAYLOAD,2023-08-28 07:02:44,14.99183651,0.0001962,69.9983,84.9082,230.4926,129.606,0.00037107,4.436e-05,0.0,0 STARLINK-3047,1 49174U 21082AW  23240.29357324  .00004436  00000-0  37107-3 0  9992,2 49174  69.9983  84.9082 0001962 230.4926 129.6060 14.99183651109186,6947.554,96.052,570.782,568.056,0.0
49174.0,STARLINK-3047,PAYLOAD,2023-08-28 21:27:27,14.99189114,0.0001914,69.998,83.3915,233.2428,126.8555,0.00037392,4.471e-05,0.0,0 STARLINK-3047,1 49174U 21082AW  23240.89406948  .00004471  00000-0  37392-3 0  9990,2 49174  69.9980  83.3915 0001914 233.2428 126.8555 14.99189114109274,6947.537,96.052,570.732,568.073,0.0
49174.0,STARLINK-3047,PAYLOAD,2023-08-29 07:03:56,14.99191894,0.0001905,69.9978,82.3805,233.6599,126.4385,0.00034804,4.155e-05,0.0,0 STARLINK-3047,1 49174U 21082AW  23241.29439955  .00004155  00000-0  34804-3 0  9993,2 49174  69.9978  82.3805 0001905 233.6599 126.4385 14.99191894109333,6947.529,96.052,570.717,568.07,0.0
49174.0,STARLINK-3047,PAYLOAD,2023-08-29 19:52:34,14.99195614,0.0001888,69.9978,81.0326,233.8087,126.2899,0.00032841,3.916e-05,0.0,0 STARLINK-3047,1 49174U 21082AW  23241.82817193  .00003916  00000-0  32841-3 0  9999,2 49174  69.9978  81.0326 0001888 233.8087 126.2899 14.99195614109412,6947.517,96.052,570.694,568.071,0.0
49174.0,STARLINK-3047,PAYLOAD,2023-08-30 16:41:35,14.99202637,0.0001871,69.9976,78.8421,234.5771,125.5214,0.00031445,3.746e-05,0.0,0 STARLINK-3047,1 49174U 21082AW  23242.69554815  .00003746  00000-0  31445-3 0  9994,2 49174  69.9976  78.8421 0001871 234.5771 125.5214 14.99202637109541,6947.496,96.051,570.661,568.061,0.0
49174.0,STARLINK-3047,PAYLOAD,2023-08-30 19:53:44,14.99203545,0.0001825,69.9977,78.5051,231.8693,128.2303,0.00032376,3.86e-05,0.0,0 STARLINK-3047,1 49174U 21082AW  23242.82899054  .00003860  00000-0  32376-3 0  9997,2 49174  69.9977  78.5051 0001825 231.8693 128.2303 14.99203545109560,6947.493,96.051,570.626,568.09,0.0
49174.0,STARLINK-3047,PAYLOAD,2023-08-31 11:54:31,14.992083,0.0001865,69.9977,76.8199,233.9118,126.1869,0.00029463,3.504e-05,0.0,0 STARLINK-3047,1 49174U 21082AW  23243.49620029  .00003504  00000-0  29463-3 0  9993,2 49174  69.9977  76.8199 0001865 233.9118 126.1869 14.99208300109662,6947.478,96.051,570.639,568.047,0.0
49174.0,STARLINK-3047,PAYLOAD,2023-09-01 00:43:09,14.99212958,0.0001736,69.9978,75.4724,233.4923,126.6077,0.00034342,4.101e-05,0.0,0 STARLINK-3047,1 49174U 21082AW  23244.02996656  .00004101  00000-0  34342-3 0  9991,2 49174  69.9978  75.4724 0001736 233.4923 126.6077 14.99212958109747,6947.464,96.05,570.535,568.123,0.0
49174.0,STARLINK-3047,PAYLOAD,2023-09-01 05:31:23,14.99215895,0.0001644,69.9973,74.9659,235.755,124.3454,0.00033409,3.987e-05,0.0,0 STARLINK-3047,1 49174U 21082AW  23244.23012799  .00003987  00000-0  33409-3 0  9995,2 49174  69.9973  74.9659 0001644 235.7550 124.3454 14.99215895109772,6947.455,96.05,570.462,568.178,0.0
49174.0,STARLINK-3047,PAYLOAD,2023-09-02 05:32:32,14.99223427,0.0001717,69.997,72.4388,237.5255,122.5738,0.00036291,4.34e-05,0.0,0 STARLINK-3047,1 49174U 21082AW  23245.23093429  .00004340  00000-0  36291-3 0  9991,2 49174  69.9970  72.4388 0001717 237.5255 122.5738 14.99223427109926,6947.431,96.05,570.489,568.104,0.0
49174.0,STARLINK-3047,PAYLOAD,2023-09-02 13:32:55,14.9922543,0.0001678,69.9979,71.5962,237.6344,122.4653,0.00033483,3.997e-05,0.0,0 STARLINK-3047,1 49174U 21082AW  23245.56453536  .00003997  00000-0  33483-3 0  9993,2 49174  69.9979  71.5962 0001678 237.6344 122.4653 14.99225430109975,6947.425,96.05,570.456,568.124,0.0
